PROMETHEUS 2-3          
1 41855U 16067H   23332.38435196  .00017270  00000+0  10715-2 0  9997
2 41855  98.0764 129.9813 0013351  35.0172 325.1930 15.09719158385222
DIDO-2                  
1 42000U 17008BE  23332.66444953  .00043904  00000+0  79742-3 0  9997
2 42000  97.1788  26.8903 0005483 140.9764 219.1884 15.49424188377317
AALTO-1                 
1 42775U 17036L   23332.61106346  .00037871  00000+0  82408-3 0  9992
2 42775  97.1336 358.6199 0006290 217.1372 142.9442 15.44188931357811
URSA MAIOR              
1 42776U 17036M   23332.64979069  .00047654  00000+0  90837-3 0  9991
2 42776  97.1336   0.6553 0005810 207.9288 152.1652 15.48016485357937
DIAMOND RED             
1 42783U 17036U   23332.62425578  .00067952  00000+0  10310-2 0  9998
2 42783  97.1271   4.9067 0003752 204.8210 155.2864 15.54375393358207
PEGASUS                 
1 42784U 17036V   23332.66100352  .00269544  00000+0  16045-2 0  9995
2 42784  97.1186  10.3752 0003496 167.6799 192.4554 15.77201060358582
DIAMOND GREEN           
1 42785U 17036W   23332.62661604  .00084903  00000+0  11426-2 0  9996
2 42785  97.1246   5.5209 0004038 195.0515 165.0621 15.57573193358237
DIAMOND BLUE            
1 42786U 17036X   23332.81831003  .00080286  00000+0  11575-2 0  9995
2 42786  97.1281   5.4430 0004362 194.0279 166.0856 15.55724140358248
CICERO 6                
1 42793U 17036AE  23332.61533172  .00057623  00000+0  10163-2 0  9998
2 42793  97.1262   4.3562 0003995 201.5751 158.5334 15.50205542358263
CORVUS BC2              
1 42846U 17042X   23332.48766615  .00005370  00000+0  48495-3 0  9991
2 42846  97.3730 164.0916 0009455  29.4731 330.7022 14.95842995347277
CORVUS BC1              
1 42847U 17042Y   23332.53469577  .00004835  00000+0  43594-3 0  9995
2 42847  97.3720 164.5083 0008993  26.0390 334.1282 14.95956224347296
MIRATA                  
1 43015U 17073C   23332.64654174  .00024107  00000+0  13711-2 0  9999
2 43015  97.6132 215.9743 0192334 223.7818 134.8020 14.98464381326060
MAKERSAT 0              
1 43016U 17073D   23332.63530038  .00016527  00000+0  10441-2 0  9995
2 43016  97.6070 212.7822 0211889 237.5643 120.4929 14.92366591325797
CORVUS BC3              
1 43118U 18004H   23332.15386498  .00053622  00000+0  96666-3 0  9990
2 43118  97.3122  47.2585 0004605 263.6865  96.3862 15.49597636327321
GOMX-4B                 
1 43196U 18015E   23332.43606854  .00037042  00000+0  80116-3 0  9991
2 43196  97.5931 129.2611 0011486 338.2925  21.7835 15.44327619324224
GOMX-4A                 
1 43197U 18015F   23332.80690243  .00044302  00000+0  81763-3 0  9994
2 43197  97.5914 132.7261 0010535 328.2271  31.8342 15.48920937324493
CUBEBEL-1 (BSUSAT-1)    
1 43666U 18083E   23332.80344186  .00112466  00000+0  15439-2 0  9995
2 43666  97.3570   6.9698 0004500 223.6734 136.4165 15.56935248282626
CICERO 10               
1 43690U 18088A   23332.45794271  .00044403  00000+0  91022-3 0  9990
2 43690  85.0250 320.7574 0007476   4.9223 355.2104 15.45850474280784
PROXIMA I               
1 43694U 18088E   23332.45674477  .00061918  00000+0  10367-2 0  9991
2 43694  85.0165 315.5816 0005174 307.1309  52.9476 15.51619619281123
PROXIMA II              
1 43696U 18088G   23332.42514660  .00059321  00000+0  10034-2 0  9993
2 43696  85.0170 315.6924 0005257 305.2790  54.7976 15.51340367281112
SIRION PATHFINDER-2     
1 43759U 18099B   23332.75762608  .00006306  00000+0  50796-3 0  9993
2 43759  97.5484  29.6968 0012159 264.2750  95.7088 15.00218849272287
CORVUS BC4              
1 43767U 18099K   23332.11153101  .00007013  00000+0  57182-3 0  9996
2 43767  97.5482  26.7765 0007470 302.9074  57.1431 14.99742295272082
MOVE-II                 
1 43780U 18099Y   23332.71937634  .00019435  00000+0  12583-2 0  9994
2 43780  97.5518  33.5374 0007110 318.1680  41.9004 15.08171723272497
SPACEBEE-7              
1 43816U 18099BL  23332.41626848  .00013238  00000+0  91384-3 0  9995
2 43816  97.5781  34.2018 0009899 258.4146 101.5970 15.05860646271996
SPACEBEE-5              
1 43817U 18099BM  23332.15733457  .00145864  00000+0  37346-2 0  9990
2 43817  97.5714  46.4193 0003615 236.2513 123.8387 15.38816641272693
SPACEBEE-6              
1 43818U 18099BN  23332.67673566  .00025280  00000+0  14815-2 0  9997
2 43818  97.5694  37.4476 0009637 269.4510  90.5616 15.11734820272368
SHIELDS 1               
1 43850U 18104B   23332.24471388  .00015010  00000+0  48327-3 0  9997
2 43850  85.0274  59.4975 0014150 106.2876 253.9929 15.31985237275195
STF-1                   
1 43852U 18104D   23332.51169347  .00130750  00000+0  13898-2 0  9991
2 43852  85.0166  53.4541 0005772  99.6471 260.5446 15.63597146275861
ZACUBE-2                
1 43907U 18111AH  23332.83458360  .00076793  00000+0  11459-2 0  9998
2 43907  97.1046 209.6073 0010940 347.4562  12.6419 15.54738820274597
LUME 1                  
1 43908U 18111AJ  23332.61020661  .00139572  00000+0  12422-2 0  9990
2 43908  97.1061 215.0687 0006025 343.9304  16.1766 15.68031626274938
MOVE-IIB                
1 44398U 19038N   23332.95308498  .01411750  11273-2  26682-2 0  9999
2 44398  97.6581 327.8206 0008467 102.1733 258.0494 16.00991351244294
SONATE                  
1 44400U 19038Q   23332.45507030  .00018205  00000+0  70936-3 0  9993
2 44400  97.7010 314.1436 0021184  96.4664 263.8987 15.25815766243245
LUCKY-7                 
1 44406U 19038W   23332.47866272  .00026896  00000+0  90656-3 0  9993
2 44406  97.6954 316.2771 0019510  87.9816 272.3659 15.30526335243390
BEESAT 9                
1 44412U 19038AC  23331.96290023  .00059230  00000+0  13688-2 0  9995
2 44412  97.6844 319.3866 0015861  81.1243 279.1799 15.42176724243283
JAISAT-1                
1 44419U 19038F   23332.53795339  .00057632  00000+0  13272-2 0  9999
2 44419  97.6832 321.1148 0015215  76.7084 283.5858 15.42299900243756
DUCHIFAT-3              
1 44854U 19089C   23332.76110721  .00014481  00000+0  87767-3 0  9995
2 44854  36.9580 185.2643 0008452 248.6865 111.2978 15.09929686217683
M2 PATHFINDER           
1 45727U 20037E   23332.48643688  .00005238  00000+0  47900-3 0  9997
2 45727  97.7626 145.4091 0012922  78.9969 281.2704 14.95360949185785
NETSAT-4                
1 46504U 20068U   23332.84368708  .00012093  00000+0  73719-3 0  9996
2 46504  97.7831 280.6645 0009870 342.4830  17.6057 15.10475090173734
NETSAT-3                
1 46505U 20068V   23332.83657621  .00011587  00000+0  71290-3 0  9990
2 46505  97.7803 280.3733 0009388 351.6534   8.4537 15.10153280173731
NETSAT-1                
1 46506U 20068W   23332.40108029  .00009654  00000+0  60726-3 0  9991
2 46506  97.7823 279.7169 0008533   4.0293 356.1002 15.09403585173656
NETSAT-2                
1 46507U 20068X   23332.84951593  .00012016  00000+0  73446-3 0  9991
2 46507  97.7817 280.3689 0008071  11.9192 348.2226 15.10393310173686
WILDTRACKCUBE-SIMBA     
1 47941U 21022K   23332.83310862  .00013966  00000+0  73420-3 0  9999
2 47941  97.4796 227.0690 0019202 122.2238 238.0859 15.15626230147917
BEESAT-6                
1 47957U 21022AB  23331.68900786  .00048476  00000+0  16950-2 0  9996
2 47957  97.4752 230.0355 0015806 108.7048 251.5909 15.29262542147825
SMOG-1                  
1 47964U 21022AJ  23332.53677759  .00051461  00000+0  17043-2 0  9992
2 47964  97.4825 233.4932 0014866  92.3357 267.9586 15.31023048147122
BCCSAT-1                
1 48041U 21022AK  23332.68193397  .00040417  00000+0  15161-2 0  9994
2 48041  97.4815 231.8243 0012997  95.0147 265.2575 15.27035510147003
BEESAT-5                
1 48083U 21022AM  23332.23852138  .00056159  00000+0  18120-2 0  9994
2 48083  97.4620 231.0393 0015425 103.0780 257.2184 15.31831022147096
BEESAT-7                
1 48084U 21022AN  23332.66112050  .00047068  00000+0  16060-2 0  9994
2 48084  97.4757 231.2937 0015251 103.2147 257.0796 15.30074421146716
BEESAT-8                
1 48085U 21022AP  23332.68181390  .00023978  00000+0  10760-2 0  9995
2 48085  97.4840 229.5283 0017556 114.1225 246.1849 15.21047688147143
LEDSAT                  
1 49069U 21073D   23332.75436050  .00015980  00000+0  78381-3 0  9996
2 49069  97.4653  41.0742 0020898 269.5352  90.3487 15.18000063125835
